IRIDIUM 116             
1 43072U 17083C   24279.39145246  .00001446  00000+0  50915-3 0  9990
2 43072  86.3997 220.9877 0002300  88.3437 271.8022 14.34218359355334
IRIDIUM 130             
1 43073U 17083D   24279.56905268  .00001708  00000+0  60271-3 0  9995
2 43073  86.4011 221.1288 0002583  87.2455 272.9036 14.34219871355307
IRIDIUM 151             
1 43074U 17083E   24279.54369371  .00000517  00000+0  17759-3 0  9993
2 43074  86.3999 220.9689 0002258  79.8165 280.3285 14.34218135355321
IRIDIUM 134             
1 43075U 17083F   24279.58174706  .00000609  00000+0  21027-3 0  9999
2 43075  86.4000 220.9525 0002337  87.8798 272.2665 14.34219724355297
IRIDIUM 137             
1 43076U 17083G   24279.38512881  .00001913  00000+0  67593-3 0  9995
2 43076  86.4000 221.1149 0002626  77.2544 282.8945 14.34220335355339
IRIDIUM 141             
1 43077U 17083H   24279.37878427  .00001789  00000+0  63144-3 0  9995
2 43077  86.3997 220.9833 0002273  86.1996 273.9460 14.34220118355331
IRIDIUM 153             
1 43078U 17083J   24279.26119635  .00002111  00000+0  74656-3 0  9993
2 43078  86.4044 189.5560 0001677  76.0040 284.1342 14.34222895356426
IRIDIUM 131             
1 43079U 17083K   24279.57539820  .00000851  00000+0  29665-3 0  9999
2 43079  86.4004 221.0455 0002194  81.1379 279.0065 14.34214296355290
